{"type": "FeatureCollection", "features": [ {"type": "Feature", "properties": {"norad_id": 30035, "name": "FENGYUN 1C DEB", "group": "fengyun-1c-debris", "lat": -37.23750200618658, "lon": -77.93641807615292, "alt_km": 737.5501670560834, "timestamp": "2025-12-25T03:55:56.631160+00:00", "meta": {"OBJECT_NAME": "FENGYUN 1C DEB", "OBJECT_ID": "1999-025NL", "EPOCH": "2025-12-24T16:41:19.781376", "MEAN_MOTION": 14.36980882, "ECCENTRICITY": 0.0115212, "INCLINATION": 99.2716, "RA_OF_ASC_NODE": 274.4269, "ARG_OF_PERICENTER": 27.3352, "MEAN_ANOMALY": 33.9713, "EPHEMERIS_TYPE": 0, "CLASSIFICATION_TYPE": "U", "NORAD_CAT_ID": 30035, "ELEMENT_SET_NO": 999, "REV_AT_EPOCH": 99295, "BSTAR": 8.83e-05, "MEAN_MOTION_DOT": 2.29e-06, "MEAN_MOTION_DDOT": 0}, "tle": {"line1": "1 30035U 99025NL  25358.69536784  .00000229  00000+0  88300-4 0  9992", "line2": "2 30035  99.2716 274.4269 0115212  27.3352  33.9713 14.36980882992954"}}, "geometry": {"type": "Point", "coordinates": [-77.93641807615292, -37.23750200618658]}}, {"type": "Feature", "properties": {"norad_id": 30036, "name": "FENGYUN 1C DEB", "group": "fengyun-1c-debris", "lat": 73.98731181231184, "lon": -123.68528418188752, "alt_km": 673.6755665584033, "timestamp": "2025-12-25T03:55:56.631171+00:00", "meta": {"OBJECT_NAME": "FENGYUN 1C DEB", "OBJECT_ID": "1999-025NM", "EPOCH": "2025-12-24T16:24:00.830016", "MEAN_MOTION": 14.46220022, "ECCENTRICITY": 0.0190549, "INCLINATION": 98.2519, "RA_OF_ASC_NODE": 25.4704, "ARG_OF_PERICENTER": 171.2258, "MEAN_ANOMALY": 314.2548, "EPHEMERIS_TYPE": 0, "CLASSIFICATION_TYPE": "U", "NORAD_CAT_ID": 30036, "ELEMENT_SET_NO": 999, "REV_AT_EPOCH": 99349, "BSTAR": 0.00034891, "MEAN_MOTION_DOT": 1.514e-05, "MEAN_MOTION_DDOT": 0}, "tle": {"line1": "1 30036U 99025NM  25358.68334294  .00001514  00000+0  34891-3 0  9997", "line2": "2 30036  98.2519  25.4704 0190549 171.2258 314.2548 14.46220022993498"}}, "geometry": {"type": "Point", "coordinates": [-123.68528418188752, 73.98731181231184]}}, {"type": "Feature", "properties": {"norad_id": 30037, "name": "FENGYUN 1C DEB", "group": "fengyun-1c-debris", "lat": -40.453538942425624, "lon": -18.264185255672583, "alt_km": 719.0397212142852, "timestamp": "2025-12-25T03:55:56.631193+00:00", "meta": {"OBJECT_NAME": "FENGYUN 1C DEB", "OBJECT_ID": "1999-025NN", "EPOCH": "2025-12-24T17:11:50.155872", "MEAN_MOTION": 14.34135559, "ECCENTRICITY": 0.0173874, "INCLINATION": 98.3849, "RA_OF_ASC_NODE": 334.0769, "ARG_OF_PERICENTER": 19.5886, "MEAN_ANOMALY": 153.2083, "EPHEMERIS_TYPE": 0, "CLASSIFICATION_TYPE": "U", "NORAD_CAT_ID": 30037, "ELEMENT_SET_NO": 999, "REV_AT_EPOCH": 98959, "BSTAR": 0.00024055, "MEAN_MOTION_DOT": 7.51e-06, "MEAN_MOTION_DDOT": 0}, "tle": {"line1": "1 30037U 99025NN  25358.71655273  .00000751  00000+0  24055-3 0  9998", "line2": "2 30037  98.3849 334.0769 0173874  19.5886 153.2083 14.34135559989597"}}, "geometry": {"type": "Point", "coordinates": [-18.264185255672583, -40.453538942425624]}}, {"type": "Feature", "properties": {"norad_id": 30038, "name": "FENGYUN 1C DEB", "group": "fengyun-1c-debris", "lat": -43.74192064793546, "lon": 158.41033433672968, "alt_km": 938.2388173483523, "timestamp": "2025-12-25T03:55:56.631205+00:00", "meta": {"OBJECT_NAME": "FENGYUN 1C DEB", "OBJECT_ID": "1999-025NP", "EPOCH": "2025-12-24T17:43:06.909888", "MEAN_MOTION": 14.39321468, "ECCENTRICITY": 0.0257906, "INCLINATION": 98.3695, "RA_OF_ASC_NODE": 346.0938, "ARG_OF_PERICENTER": 66.8968, "MEAN_ANOMALY": 112.387, "EPHEMERIS_TYPE": 0, "CLASSIFICATION_TYPE": "U", "NORAD_CAT_ID": 30038, "ELEMENT_SET_NO": 999, "REV_AT_EPOCH": 99063, "BSTAR": 0.00027829, "MEAN_MOTION_DOT": 1.226e-05, "MEAN_MOTION_DDOT": 0}, "tle": {"line1": "1 30038U 99025NP  25358.73827442  .00001226  00000+0  27829-3 0  9990", "line2": "2 30038  98.3695 346.0938 0257906  66.8968 112.3870 14.39321468990631"}}, "geometry": {"type": "Point", "coordinates": [158.41033433672968, -43.74192064793546]}}, {"type": "Feature", "properties": {"norad_id": 30040, "name": "FENGYUN 1C DEB", "group": "fengyun-1c-debris", "lat": -72.61665673294713, "lon": 167.46196721837643, "alt_km": 753.2441019712505, "timestamp": "2025-12-25T03:55:56.631216+00:00", "meta": {"OBJECT_NAME": "FENGYUN 1C DEB", "OBJECT_ID": "1999-025NR", "EPOCH": "2025-12-24T20:38:54.278016", "MEAN_MOTION": 14.37228256, "ECCENTRICITY": 0.0032367, "INCLINATION": 98.2334, "RA_OF_ASC_NODE": 14.72, "ARG_OF_PERICENTER": 275.7715, "MEAN_ANOMALY": 209.5587, "EPHEMERIS_TYPE": 0, "CLASSIFICATION_TYPE": "U", "NORAD_CAT_ID": 30040, "ELEMENT_SET_NO": 999, "REV_AT_EPOCH": 98102, "BSTAR": 0.0015807, "MEAN_MOTION_DOT": 4.696e-05, "MEAN_MOTION_DDOT": 0}, "tle": {"line1": "1 30040U 99025NR  25358.86035044  .00004696  00000+0  15807-2 0  9992", "line2": "2 30040  98.2334  14.7200 0032367 275.7715 209.5587 14.37228256981023"}}, "geometry": {"type": "Point", "coordinates": [167.46196721837643, -72.61665673294713]}}, {"type": "Feature", "properties": {"norad_id": 30041, "name": "FENGYUN 1C DEB", "group": "fengyun-1c-debris", "lat": -27.647020886275726, "lon": -78.63949569843349, "alt_km": 831.0262805450884, "timestamp": "2025-12-25T03:55:56.631227+00:00", "meta": {"OBJECT_NAME": "FENGYUN 1C DEB", "OBJECT_ID": "1999-025NS", "EPOCH": "2025-12-24T20:42:12.859776", "MEAN_MOTION": 14.13206101, "ECCENTRICITY": 0.0035247, "INCLINATION": 99.4669, "RA_OF_ASC_NODE": 106.0564, "ARG_OF_PERICENTER": 183.7124, "MEAN_ANOMALY": 292.5359, "EPHEMERIS_TYPE": 0, "CLASSIFICATION_TYPE": "U", "NORAD_CAT_ID": 30041, "ELEMENT_SET_NO": 999, "REV_AT_EPOCH": 97458, "BSTAR": 0.00044852, "MEAN_MOTION_DOT": 7.95e-06, "MEAN_MOTION_DDOT": 0}, "tle": {"line1": "1 30041U 99025NS  25358.86264884  .00000795  00000+0  44852-3 0  9998", "line2": "2 30041  99.4669 106.0564 0035247 183.7124 292.5359 14.13206101974589"}}, "geometry": {"type": "Point", "coordinates": [-78.63949569843349, -27.647020886275726]}}, {"type": "Feature", "properties": {"norad_id": 30043, "name": "FENGYUN 1C DEB", "group": "fengyun-1c-debris", "lat": -37.49658860234544, "lon": 103.59029049175346, "alt_km": 954.8706382435967, "timestamp": "2025-12-25T03:55:56.631238+00:00", "meta": {"OBJECT_NAME": "FENGYUN 1C DEB", "OBJECT_ID": "1999-025NU", "EPOCH": "2025-12-24T19:40:49.702080", "MEAN_MOTION": 14.23632448, "ECCENTRICITY": 0.028345, "INCLINATION": 98.6267, "RA_OF_ASC_NODE": 96.564, "ARG_OF_PERICENTER": 95.9265, "MEAN_ANOMALY": 267.4293, "EPHEMERIS_TYPE": 0, "CLASSIFICATION_TYPE": "U", "NORAD_CAT_ID": 30043, "ELEMENT_SET_NO": 999, "REV_AT_EPOCH": 97517, "BSTAR": 0.00071454, "MEAN_MOTION_DOT": 2.422e-05, "MEAN_MOTION_DDOT": 0}, "tle": {"line1": "1 30043U 99025NU  25358.82001970  .00002422  00000+0  71454-3 0  9998", "line2": "2 30043  98.6267  96.5640 0283450  95.9265 267.4293 14.23632448975177"}}, "geometry": {"type": "Point", "coordinates": [103.59029049175346, -37.49658860234544]}}, {"type": "Feature", "properties": {"norad_id": 30044, "name": "FENGYUN 1C DEB", "group": "fengyun-1c-debris", "lat": -20.85694139068458, "lon": -77.68656015464369, "alt_km": 777.392813451318, "timestamp": "2025-12-25T03:55:56.631248+00:00", "meta": {"OBJECT_NAME": "FENGYUN 1C DEB", "OBJECT_ID": "1999-025NV", "EPOCH": "2025-12-24T16:26:37.886208", "MEAN_MOTION": 14.50800551, "ECCENTRICITY": 0.0080293, "INCLINATION": 98.2125, "RA_OF_ASC_NODE": 278.692, "ARG_OF_PERICENTER": 130.2323, "MEAN_ANOMALY": 230.5933, "EPHEMERIS_TYPE": 0, "CLASSIFICATION_TYPE": "U", "NORAD_CAT_ID": 30044, "ELEMENT_SET_NO": 999, "REV_AT_EPOCH": 98212, "BSTAR": 0.0016369, "MEAN_MOTION_DOT": 6.68e-05, "MEAN_MOTION_DDOT": 0}, "tle": {"line1": "1 30044U 99025NV  25358.68516072  .00006680  00000+0  16369-2 0  9990", "line2": "2 30044  98.2125 278.6920 0080293 130.2323 230.5933 14.50800551982126"}}, "geometry": {"type": "Point", "coordinates": [-77.68656015464369, -20.85694139068458]}}, {"type": "Feature", "properties": {"norad_id": 30045, "name": "FENGYUN 1C DEB", "group": "fengyun-1c-debris", "lat": -73.30295372211869, "lon": 67.83978698748899, "alt_km": 887.5405231148125, "timestamp": "2025-12-25T03:55:56.631259+00:00", "meta": {"OBJECT_NAME": "FENGYUN 1C DEB", "OBJECT_ID": "1999-025NW", "EPOCH": "2025-12-24T13:48:02.476224", "MEAN_MOTION": 14.2170152, "ECCENTRICITY": 0.00939, "INCLINATION": 99.178, "RA_OF_ASC_NODE": 34.6129, "ARG_OF_PERICENTER": 79.8122, "MEAN_ANOMALY": 72.7074, "EPHEMERIS_TYPE": 0, "CLASSIFICATION_TYPE": "U", "NORAD_CAT_ID": 30045, "ELEMENT_SET_NO": 999, "REV_AT_EPOCH": 96856, "BSTAR": 0.0019635, "MEAN_MOTION_DOT": 4.467e-05, "MEAN_MOTION_DDOT": 0}, "tle": {"line1": "1 30045U 99025NW  25358.57502866  .00004467  00000+0  19635-2 0  9995", "line2": "2 30045  99.1780  34.6129 0093900  79.8122  72.7074 14.21701520968567"}}, "geometry": {"type": "Point", "coordinates": [67.83978698748899, -73.30295372211869]}}, {"type": "Feature", "properties": {"norad_id": 30047, "name": "FENGYUN 1C DEB", "group": "fengyun-1c-debris", "lat": 78.68096651981895, "lon": 96.12013464681084, "alt_km": 988.7487551480053, "timestamp": "2025-12-25T03:55:56.631269+00:00", "meta": {"OBJECT_NAME": "FENGYUN 1C DEB", "OBJECT_ID": "1999-025NY", "EPOCH": "2025-12-23T05:54:04.236768", "MEAN_MOTION": 13.94372377, "ECCENTRICITY": 0.01257542, "INCLINATION": 99.9194, "RA_OF_ASC_NODE": 155.0128, "ARG_OF_PERICENTER": 294.775, "MEAN_ANOMALY": 246.5335, "EPHEMERIS_TYPE": 0, "CLASSIFICATION_TYPE": "U", "NORAD_CAT_ID": 30047, "ELEMENT_SET_NO": 999, "REV_AT_EPOCH": 96062, "BSTAR": 0.00059811296, "MEAN_MOTION_DOT": 7.98e-06, "MEAN_MOTION_DDOT": 0}, "tle": {"line1": "1 30047U 99025NY  25357.24588237  .00000798  00000+0  59811-3 0  9990", "line2": "2 30047  99.9194 155.0128 0125754 294.7750 246.5335 13.94372377960624"}}, "geometry": {"type": "Point", "coordinates": [96.12013464681084, 78.68096651981895]}}]}